     3.00           N                   E                   RINEX VERSION / TYPE
BRD_USR             ESA                 20190113 011724  UTCPGM / RUN BY / DATE
 GAL   3.7000E+01  1.3672E-01  3.0518E-04  0.0000E+00       IONOSPHERIC CORR
GAUT  2.7939677238E-09-1.776356839E-15 518400 2035 GSTB   0 TIME SYSTEM CORR
GPGA  8.7311491370E-11-3.108624469E-15      0 2036 GSTB   0 TIME SYSTEM CORR
                                                            END OF HEADER
E31 2019 01 12 23 30 00 9.341682307422E-04-9.634959496907E-12 0.000000000000E+00
     1.090000000000E+02 7.531250000000E+00 3.014768434349E-09-2.803902480833E+00
     3.818422555923E-07 2.242081100121E-04 6.483867764473E-06 5.440622184753E+03
     6.030000000000E+05-3.725290298462E-09-2.952028619795E+00 6.705522537231E-08
     9.896644917042E-01 2.153125000000E+02-1.514633816247E+00-5.568089076117E-09
    -3.003696544589E-10 5.210000000000E+02 2.035000000000E+03 0.000000000000E+00
     3.120000000000E+00 0.000000000000E+00-2.328306436539E-10-4.656612873077E-10
     6.036850000000E+05 0.000000000000E+00 0.000000000000E+00 0.000000000000E+00
E33 2019 01 12 23 30 00 8.479109383188E-04 7.105427357601E-14 0.000000000000E+00
     1.090000000000E+02 2.818750000000E+01 2.920835950256E-09 2.064012840340E+00
     1.318752765656E-06 3.694493789226E-04 4.615634679794E-06 5.440596843719E+03
     6.030000000000E+05 3.352761268616E-08-8.694252695894E-01 6.519258022308E-08
     9.851741480462E-01 2.509687500000E+02-1.425515203619E+00-5.670950503565E-09
     1.846505485794E-10 5.210000000000E+02 2.035000000000E+03 0.000000000000E+00
     3.120000000000E+00 4.550000000000E+02-8.149072527885E-09-9.313225746155E-09
     6.036850000000E+05 0.000000000000E+00 0.000000000000E+00 0.000000000000E+00
E05 2019 01 12 23 30 00 1.260949065909E-04-6.494360604847E-12 0.000000000000E+00
     1.090000000000E+02-4.125000000000E+01 3.136559221710E-09 8.421786061537E-01
    -1.840293407440E-06 1.345016062260E-04 1.161359250546E-05 5.440621644974E+03
     6.030000000000E+05 3.352761268616E-08 1.241208901790E+00-9.313225746155E-09
     9.524654693013E-01 8.381250000000E+01 1.625463992540E+00-5.571303495725E-09
     6.357407668690E-11 2.580000000000E+02 2.035000000000E+03 0.000000000000E+00
     3.120000000000E+00 0.000000000000E+00-1.396983861923E-09 0.000000000000E+00
     6.037000000000E+05 0.000000000000E+00 0.000000000000E+00 0.000000000000E+00
E07 2019 01 12 23 30 00-1.114600454457E-04-7.062794793455E-12 0.000000000000E+00
     1.090000000000E+02-2.718750000000E+01 3.081556930644E-09 1.168454906265E-01
    -1.186504960060E-06 1.372641418129E-04 1.048110425472E-05 5.440623708725E+03
     6.030000000000E+05 1.303851604462E-08 1.241225647813E+00 9.313225746155E-09
     9.524960121050E-01 1.117500000000E+02-7.109764310221E-03-5.523444359342E-09
     1.453631978178E-10 2.580000000000E+02 2.035000000000E+03 0.000000000000E+00
     3.120000000000E+00 0.000000000000E+00 2.328306436539E-10 0.000000000000E+00
     6.037000000000E+05 0.000000000000E+00 0.000000000000E+00 0.000000000000E+00
E08 2019 01 12 23 30 00 6.424606835935E-03-7.474909580196E-12 0.000000000000E+00
     1.090000000000E+02-4.559375000000E+01 3.067984936744E-09 4.390684470432E-01
    -2.093613147736E-06 2.144934842363E-04 1.043453812599E-05 5.440618999481E+03
     6.030000000000E+05-4.656612873077E-08 1.232615849729E+00 1.676380634308E-08
     9.584394284036E-01 1.160000000000E+02 4.572708696129E-01-5.455941547579E-09
     1.025042697143E-10 2.580000000000E+02 2.035000000000E+03 0.000000000000E+00
     3.120000000000E+00 0.000000000000E+00-8.614733815193E-09 0.000000000000E+00
     6.037000000000E+05 0.000000000000E+00 0.000000000000E+00 0.000000000000E+00
E09 2019 01 12 23 30 00 6.560041161720E-03-1.135447291745E-11 0.000000000000E+00
     1.090000000000E+02-3.553125000000E+01 3.033697794262E-09-3.120987630919E+00
    -1.605600118637E-06 2.386515261605E-04 1.204013824463E-05 5.440621156693E+03
     6.030000000000E+05 2.980232238770E-08 1.232613450544E+00 7.450580596924E-09
     9.584689398500E-01 7.931250000000E+01 8.906596074334E-02-5.498086160215E-09
     7.857470152314E-11 2.580000000000E+02 2.035000000000E+03 0.000000000000E+00
     3.120000000000E+00 0.000000000000E+00-3.492459654808E-09 0.000000000000E+00
     6.037000000000E+05 0.000000000000E+00 0.000000000000E+00 0.000000000000E+00
E11 2019 01 12 23 30 00 5.719670327380E-03 7.958078640513E-13 0.000000000000E+00
     1.090000000000E+02 3.331250000000E+01 2.934050786421E-09-5.891400520022E-01
     1.491978764534E-06 2.769037382677E-04 5.725771188736E-06 5.440599985123E+03
     6.030000000000E+05 5.774199962616E-08-8.641023968075E-01-1.676380634308E-08
     9.819365538046E-01 2.295937500000E+02-3.469462880484E-01-5.679522289186E-09
     1.946509651369E-10 2.580000000000E+02 2.035000000000E+03 0.000000000000E+00
     3.120000000000E+00 0.000000000000E+00-1.839362084866E-08 0.000000000000E+00
     6.037000000000E+05 0.000000000000E+00 0.000000000000E+00 0.000000000000E+00
E12 2019 01 12 23 30 00 5.929281411227E-03 8.439826615358E-11 0.000000000000E+00
     1.090000000000E+02 3.021875000000E+01 2.952980146333E-09 7.159943175687E-01
     1.277774572372E-06 4.005506634712E-04 4.781410098076E-06 5.440604671478E+03
     6.030000000000E+05 5.029141902924E-08-8.641179578671E-01 9.313225746155E-09
     9.819503520479E-01 2.462500000000E+02-8.484536103899E-01-5.728452898771E-09
     1.835790753768E-10 2.580000000000E+02 2.035000000000E+03 0.000000000000E+00
     3.120000000000E+00 0.000000000000E+00-1.536682248116E-08 0.000000000000E+00
     6.037000000000E+05 0.000000000000E+00 0.000000000000E+00 0.000000000000E+00
E13 2019 01 12 23 30 00 3.816608223133E-04 4.831690603169E-13 0.000000000000E+00
     1.090000000000E+02 1.637500000000E+01 2.780830118451E-09-2.561620576065E+00
     7.171183824539E-07 3.415551036596E-04 5.034729838371E-06 5.440601310730E+03
     6.030000000000E+05-4.097819328308E-08-8.693888502438E-01-1.490116119385E-08
     9.851782983448E-01 2.457500000000E+02-1.509533097816E+00-5.600590429929E-09
     1.442917246152E-10 2.580000000000E+02 2.035000000000E+03 0.000000000000E+00
     3.120000000000E+00 5.600000000000E+01-4.656612873077E-09 0.000000000000E+00
     6.037000000000E+05 0.000000000000E+00 0.000000000000E+00 0.000000000000E+00
E15 2019 01 12 23 30 00 9.231301955879E-04-1.051603248925E-12 0.000000000000E+00
     1.090000000000E+02 1.900000000000E+01 2.883334388165E-09-1.695692621341E+00
     8.083879947662E-07 3.884265897796E-04 5.397945642471E-06 5.440595483780E+03
     6.030000000000E+05-9.313225746155E-09-8.694002010252E-01-2.793967723846E-08
     9.851358269071E-01 2.355000000000E+02-1.593186305553E+00-5.617019685702E-09
     1.464346710204E-10 2.580000000000E+02 2.035000000000E+03 0.000000000000E+00
     3.120000000000E+00 5.600000000000E+01 1.396983861923E-09 0.000000000000E+00
     6.037000000000E+05 0.000000000000E+00 0.000000000000E+00 0.000000000000E+00
E18 2019 01 12 23 30 00 5.610793421511E-03-2.842170943040E-11 0.000000000000E+00
     1.090000000000E+02 5.693750000000E+01 4.259463138022E-09 2.800001404966E+00
     2.237036824226E-06 1.662891668966E-01 7.083639502525E-06 5.289394981384E+03
     6.030000000000E+05 2.503395080566E-06-1.448888892381E+00-8.866190910339E-07
     8.818393188444E-01 1.293125000000E+02 1.441901097403E+00-5.683093866528E-09
     1.428630936784E-12 2.580000000000E+02 2.035000000000E+03 0.000000000000E+00
     3.120000000000E+00 5.600000000000E+01 1.420266926289E-08 0.000000000000E+00
     6.037000000000E+05 0.000000000000E+00 0.000000000000E+00 0.000000000000E+00
E21 2019 01 12 23 30 00-5.141347064637E-04-1.875832822407E-12 0.000000000000E+00
     1.090000000000E+02 9.093750000000E+00 2.922978896661E-09-3.059362151239E+00
     3.483146429062E-07 4.800537135452E-05 6.407499313354E-06 5.440626146317E+03
     6.030000000000E+05-4.470348358154E-08-2.951995946983E+00-5.774199962616E-08
     9.896891594289E-01 2.180312500000E+02 3.101119623451E-01-5.541659403786E-09
    -2.921550265724E-10 2.580000000000E+02 2.035000000000E+03 0.000000000000E+00
     3.120000000000E+00 0.000000000000E+00-2.095475792885E-09 0.000000000000E+00
     6.037000000000E+05 0.000000000000E+00 0.000000000000E+00 0.000000000000E+00
E25 2019 01 12 23 30 00 1.925632008351E-03-1.136868377216E-11 0.000000000000E+00
     1.090000000000E+02 8.125000000000E+00 3.002982229121E-09 1.733223819775E+00
     3.650784492493E-07 1.868419349194E-04 5.982816219330E-06 5.440620037079E+03
     6.030000000000E+05-3.725290298462E-09-2.952005214569E+00 1.117587089539E-08
     9.896948969936E-01 2.271875000000E+02-1.339294176738E+00-5.565946129712E-09
    -2.842975564201E-10 2.580000000000E+02 2.035000000000E+03 0.000000000000E+00
     3.120000000000E+00 0.000000000000E+00-1.164153218269E-09 0.000000000000E+00
     6.037000000000E+05 0.000000000000E+00 0.000000000000E+00 0.000000000000E+00
E27 2019 01 12 23 30 00 5.509353941306E-04-7.645439836779E-12 0.000000000000E+00
     1.090000000000E+02 3.343750000000E+00 2.958694670080E-09-1.143595726598E+00
     9.499490261078E-08 1.841434277594E-04 6.090849637985E-06 5.440622903824E+03
     6.030000000000E+05 5.960464477539E-08-2.951979827089E+00-3.539025783539E-08
     9.896615219805E-01 2.233125000000E+02-8.187870712538E-01-5.584875489624E-09
    -2.446530479243E-10 2.580000000000E+02 2.035000000000E+03 0.000000000000E+00
     3.120000000000E+00 0.000000000000E+00-2.561137080193E-09 0.000000000000E+00
     6.037000000000E+05 0.000000000000E+00 0.000000000000E+00 0.000000000000E+00
